[{"OBJECT_NAME":"QIANFAN-90","OBJECT_ID":"2025-046T","EPOCH":"2026-03-09T22:20:08.623104","MEAN_MOTION":13.51010156,"ECCENTRICITY":0.00119116,"INCLINATION":88.9753,"RA_OF_ASC_NODE":311.006,"ARG_OF_PERICENTER":228.9194,"MEAN_ANOMALY":131.0929,"EPHEMERIS_TYPE":0,"CLASSIFICATION_TYPE":"U","NORAD_CAT_ID":63176,"ELEMENT_SET_NO":999,"REV_AT_EPOCH":5919,"BSTAR":0.00024783243,"MEAN_MOTION_DOT":1.72e-6,"MEAN_MOTION_DDOT":0},{"OBJECT_NAME":"DELTA 1 DEB","OBJECT_ID":"1975-052DJ","EPOCH":"2026-03-06T11:22:06.079008","MEAN_MOTION":13.50658539,"ECCENTRICITY":0.00720014,"INCLINATION":99.5419,"RA_OF_ASC_NODE":307.3179,"ARG_OF_PERICENTER":157.1403,"MEAN_ANOMALY":327.7702,"EPHEMERIS_TYPE":0,"CLASSIFICATION_TYPE":"U","NORAD_CAT_ID":21388,"ELEMENT_SET_NO":999,"REV_AT_EPOCH":71346,"BSTAR":0.00017562323,"MEAN_MOTION_DOT":7.3e-7,"MEAN_MOTION_DDOT":0}]
